start=new Date('2022-04-28T00:00:00.000Z').valueOf();
sats=[{"NORAD_CAT_ID":"50837","OBJECT_NAME":"STARLINK-3318","REV_AT_EPOCH":"359","MEAN_MOTION_DDOT":"0.0000000000000","SITE":"AFETR","DECAY_DATE":null,"CENTER_NAME":"EARTH","APOAPSIS":"541.191","PERIOD":"95.440","TIME_SYSTEM":"UTC","OBJECT_ID":"2022-001AL","EPOCH":"2022-04-27T14:00:01.999872","LAUNCH_DATE":"2022-01-06","ELEMENT_SET_NO":"999","MEAN_ANOMALY":"75.4079","MEAN_ELEMENT_THEORY":"SGP4","OBJECT_TYPE":"PAYLOAD","REF_FRAME":"TEME","ARG_OF_PERICENTER":"51.2545","MEAN_MOTION":"15.08795104","CLASSIFICATION_TYPE":"U","SEMIMAJOR_AXIS":"6918.018","PERIAPSIS":"538.574","MEAN_MOTION_DOT":"0.00051067","FILE":"3418497","BSTAR":"0.00320750000000","RCS_SIZE":"LARGE","ECCENTRICITY":"0.00018910","GP_ID":"202159852","EPHEMERIS_TYPE":"0","TLE_LINE1":"1 50837U 22001AL  22117.58335648  .00051067  00000-0  32075-2 0  9991","RA_OF_ASC_NODE":"28.3007","COUNTRY_CODE":"US","INCLINATION":"53.2192","TLE_LINE2":"2 50837  53.2192  28.3007 0001891  51.2545  75.4079 15.08795104  3597"},{"EPHEMERIS_TYPE":"0","TLE_LINE1":"1 50838U 22001AM  22117.58335648  .00042356  00000-0  26658-2 0  9993","BSTAR":"0.00266580000000","ECCENTRICITY":"0.00020020","RCS_SIZE":"LARGE","GP_ID":"202160103","PERIAPSIS":"538.460","MEAN_MOTION_DOT":"0.00042356","FILE":"3418497","SEMIMAJOR_AXIS":"6917.980","TLE_LINE2":"2 50838  53.2174  38.3057 0002002  42.3564  49.3397 15.08807326  3594","INCLINATION":"53.2174","RA_OF_ASC_NODE":"38.3057","COUNTRY_CODE":"US","DECAY_DATE":null,"CENTER_NAME":"EARTH","APOAPSIS":"541.230","PERIOD":"95.440","MEAN_MOTION_DDOT":"0.0000000000000","REV_AT_EPOCH":"359","SITE":"AFETR","OBJECT_NAME":"STARLINK-3322","NORAD_CAT_ID":"50838","ARG_OF_PERICENTER":"42.3564","CLASSIFICATION_TYPE":"U","MEAN_MOTION":"15.08807326","LAUNCH_DATE":"2022-01-06","ELEMENT_SET_NO":"999","MEAN_ANOMALY":"49.3397","MEAN_ELEMENT_THEORY":"SGP4","OBJECT_TYPE":"PAYLOAD","REF_FRAME":"TEME","EPOCH":"2022-04-27T14:00:01.999872","TIME_SYSTEM":"UTC","OBJECT_ID":"2022-001AM"},{"MEAN_MOTION_DDOT":"0.0000000000000","REV_AT_EPOCH":"1840","SITE":"AFETR","CENTER_NAME":"EARTH","DECAY_DATE":null,"APOAPSIS":"541.083","PERIOD":"95.436","NORAD_CAT_ID":"50839","OBJECT_NAME":"STARLINK-3320","LAUNCH_DATE":"2022-01-06","ELEMENT_SET_NO":"999","MEAN_ANOMALY":"4.8520","MEAN_ELEMENT_THEORY":"SGP4","OBJECT_TYPE":"PAYLOAD","REF_FRAME":"TEME","ARG_OF_PERICENTER":"38.3588","CLASSIFICATION_TYPE":"U","MEAN_MOTION":"15.08869837","TIME_SYSTEM":"UTC","OBJECT_ID":"2022-001AN","EPOCH":"2022-04-27T22:00:00.999936","BSTAR":"-0.00364950000000","RCS_SIZE":"LARGE","ECCENTRICITY":"0.00020650","GP_ID":"202169898","TLE_LINE1":"1 50839U 22001AN  22117.91667824 -.00057952  00000-0 -36495-2 0  9995","EPHEMERIS_TYPE":"0","SEMIMAJOR_AXIS":"6917.789","PERIAPSIS":"538.226","MEAN_MOTION_DOT":"-0.00057952","FILE":"3418852","TLE_LINE2":"2 50839  53.2161  36.8106 0002065  38.3588   4.8520 15.08869837 18404","RA_OF_ASC_NODE":"36.8106","COUNTRY_CODE":"US","INCLINATION":"53.2161"},{"INCLINATION":"53.2152","RA_OF_ASC_NODE":"38.3044","COUNTRY_CODE":"US","TLE_LINE2":"2 50840  53.2152  38.3044 0001922  43.7646   7.9148 15.08817461  3602","PERIAPSIS":"538.485","MEAN_MOTION_DOT":"0.00023306","FILE":"3418497","SEMIMAJOR_AXIS":"6917.949","TLE_LINE1":"1 50840U 22001AP  22117.58335648  .00023306  00000-0  14785-2 0  9998","EPHEMERIS_TYPE":"0","BSTAR":"0.00147850000000","ECCENTRICITY":"0.00019220","RCS_SIZE":"LARGE","GP_ID":"202159603","EPOCH":"2022-04-27T14:00:01.999872","TIME_SYSTEM":"UTC","OBJECT_ID":"2022-001AP","ARG_OF_PERICENTER":"43.7646","CLASSIFICATION_TYPE":"U","MEAN_MOTION":"15.08817461","LAUNCH_DATE":"2022-01-06","MEAN_ANOMALY":"7.9148","ELEMENT_SET_NO":"999","MEAN_ELEMENT_THEORY":"SGP4","REF_FRAME":"TEME","OBJECT_TYPE":"PAYLOAD","OBJECT_NAME":"STARLINK-3295","NORAD_CAT_ID":"50840","CENTER_NAME":"EARTH","DECAY_DATE":null,"APOAPSIS":"541.144","PERIOD":"95.439","REV_AT_EPOCH":"360","MEAN_MOTION_DDOT":"0.0000000000000","SITE":"AFETR"},{"ECCENTRICITY":"0.00019600","RCS_SIZE":"LARGE","BSTAR":"-0.00058436000000","GP_ID":"202169887","TLE_LINE1":"1 50841U 22001AQ  22117.91667824 -.00009578  00000-0 -58436-3 0  9999","EPHEMERIS_TYPE":"0","SEMIMAJOR_AXIS":"6917.865","PERIAPSIS":"538.374","FILE":"3418852","MEAN_MOTION_DOT":"-0.00009578","TLE_LINE2":"2 50841  53.2167  36.8110 0001960  37.5303 325.6964 15.08844963 18439","RA_OF_ASC_NODE":"36.8110","COUNTRY_CODE":"US","INCLINATION":"53.2167","MEAN_MOTION_DDOT":"0.0000000000000","REV_AT_EPOCH":"1843","SITE":"AFETR","APOAPSIS":"541.086","DECAY_DATE":null,"CENTER_NAME":"EARTH","PERIOD":"95.437","NORAD_CAT_ID":"50841","OBJECT_NAME":"STARLINK-3300","ELEMENT_SET_NO":"999","LAUNCH_DATE":"2022-01-06","MEAN_ANOMALY":"325.6964","MEAN_ELEMENT_THEORY":"SGP4","REF_FRAME":"TEME","OBJECT_TYPE":"PAYLOAD","ARG_OF_PERICENTER":"37.5303","CLASSIFICATION_TYPE":"U","MEAN_MOTION":"15.08844963","TIME_SYSTEM":"UTC","OBJECT_ID":"2022-001AQ","EPOCH":"2022-04-27T22:00:00.999936"},{"NORAD_CAT_ID":"50842","OBJECT_NAME":"STARLINK-3302","MEAN_MOTION_DDOT":"0.0000000000000","REV_AT_EPOCH":"359","SITE":"AFETR","CENTER_NAME":"EARTH","DECAY_DATE":null,"APOAPSIS":"541.200","PERIOD":"95.440","TIME_SYSTEM":"UTC","OBJECT_ID":"2022-001AR","EPOCH":"2022-04-27T14:00:01.999872","LAUNCH_DATE":"2022-01-06","MEAN_ANOMALY":"31.8912","ELEMENT_SET_NO":"999","MEAN_ELEMENT_THEORY":"SGP4","REF_FRAME":"TEME","OBJECT_TYPE":"PAYLOAD","ARG_OF_PERICENTER":"39.8036","MEAN_MOTION":"15.08806211","CLASSIFICATION_TYPE":"U","SEMIMAJOR_AXIS":"6917.984","PERIAPSIS":"538.498","MEAN_MOTION_DOT":"0.00043940","FILE":"3418497","BSTAR":"0.00276430000000","ECCENTRICITY":"0.00019530","RCS_SIZE":"LARGE","GP_ID":"202160604","EPHEMERIS_TYPE":"0","TLE_LINE1":"1 50842U 22001AR  22117.58335648  .00043940  00000-0  27643-2 0  9993","RA_OF_ASC_NODE":"38.3094","COUNTRY_CODE":"US","INCLINATION":"53.2172","TLE_LINE2":"2 50842  53.2172  38.3094 0001953  39.8036  31.8912 15.08806211  3598"},{"INCLINATION":"53.2181","RA_OF_ASC_NODE":"38.3136","COUNTRY_CODE":"US","TLE_LINE2":"2 50843  53.2181  38.3136 0002012  37.8620 273.8363 15.08826305  3594","PERIAPSIS":"538.395","FILE":"3418497","MEAN_MOTION_DOT":"0.00011303","SEMIMAJOR_AXIS":"6917.922","TLE_LINE1":"1 50843U 22001AS  22117.58335648  .00011303  00000-0  72739-3 0  9999","EPHEMERIS_TYPE":"0","RCS_SIZE":"LARGE","ECCENTRICITY":"0.00020120","BSTAR":"0.00072739000000","GP_ID":"202160349","EPOCH":"2022-04-27T14:00:01.999872","TIME_SYSTEM":"UTC","OBJECT_ID":"2022-001AS","ARG_OF_PERICENTER":"37.8620","CLASSIFICATION_TYPE":"U","MEAN_MOTION":"15.08826305","LAUNCH_DATE":"2022-01-06","MEAN_ANOMALY":"273.8363","ELEMENT_SET_NO":"999","MEAN_ELEMENT_THEORY":"SGP4","REF_FRAME":"TEME","OBJECT_TYPE":"PAYLOAD","OBJECT_NAME":"STARLINK-3325","NORAD_CAT_ID":"50843","APOAPSIS":"541.179","DECAY_DATE":null,"CENTER_NAME":"EARTH","PERIOD":"95.438","MEAN_MOTION_DDOT":"0.0000000000000","REV_AT_EPOCH":"359","SITE":"AFETR"},{"NORAD_CAT_ID":"50844","OBJECT_NAME":"STARLINK-3326","SITE":"AFETR","MEAN_MOTION_DDOT":"0.0000000000000","REV_AT_EPOCH":"359","PERIOD":"95.440","APOAPSIS":"541.054","CENTER_NAME":"EARTH","DECAY_DATE":null,"OBJECT_ID":"2022-001AT","TIME_SYSTEM":"UTC","EPOCH":"2022-04-27T14:00:01.999872","REF_FRAME":"TEME","OBJECT_TYPE":"PAYLOAD","LAUNCH_DATE":"2022-01-06","MEAN_ANOMALY":"85.9095","ELEMENT_SET_NO":"999","MEAN_ELEMENT_THEORY":"SGP4","MEAN_MOTION":"15.08807255","CLASSIFICATION_TYPE":"U","ARG_OF_PERICENTER":"45.7753","SEMIMAJOR_AXIS":"6917.980","FILE":"3418497","MEAN_MOTION_DOT":"0.00018781","PERIAPSIS":"538.637","GP_ID":"202159103","ECCENTRICITY":"0.00017470","RCS_SIZE":"LARGE","BSTAR":"0.00119600000000","EPHEMERIS_TYPE":"0","TLE_LINE1":"1 50844U 22001AT  22117.58335648  .00018781  00000-0  11960-2 0  9995","COUNTRY_CODE":"US","RA_OF_ASC_NODE":"38.3001","INCLINATION":"53.2189","TLE_LINE2":"2 50844  53.2189  38.3001 0001747  45.7753  85.9095 15.08807255  3590"},{"OBJECT_NAME":"STARLINK-3230","NORAD_CAT_ID":"50845","APOAPSIS":"540.621","CENTER_NAME":"EARTH","DECAY_DATE":null,"PERIOD":"95.436","MEAN_MOTION_DDOT":"0.0000000000000","REV_AT_EPOCH":"1837","SITE":"AFETR","EPOCH":"2022-04-27T22:00:00.999936","TIME_SYSTEM":"UTC","OBJECT_ID":"2022-001AU","ARG_OF_PERICENTER":"64.5430","MEAN_MOTION":"15.08866898","CLASSIFICATION_TYPE":"U","ELEMENT_SET_NO":"999","LAUNCH_DATE":"2022-01-06","MEAN_ANOMALY":"198.6418","MEAN_ELEMENT_THEORY":"SGP4","OBJECT_TYPE":"PAYLOAD","REF_FRAME":"TEME","PERIAPSIS":"538.705","FILE":"3418859","MEAN_MOTION_DOT":"-0.00044736","SEMIMAJOR_AXIS":"6917.798","EPHEMERIS_TYPE":"0","TLE_LINE1":"1 50845U 22001AU  22117.91667824 -.00044736  00000-0 -28082-2 0  9991","ECCENTRICITY":"0.00013850","RCS_SIZE":"LARGE","BSTAR":"-0.00280820000000","GP_ID":"202170046","INCLINATION":"53.2193","RA_OF_ASC_NODE":"36.8010","COUNTRY_CODE":"US","TLE_LINE2":"2 50845  53.2193  36.8010 0001385  64.5430 198.6418 15.08866898 18379"},{"TLE_LINE2":"2 50846  53.2190  36.8036 0001905  41.8652 121.3632 15.08844387 18412","INCLINATION":"53.2190","COUNTRY_CODE":"US","RA_OF_ASC_NODE":"36.8036","TLE_LINE1":"1 50846U 22001AV  22117.91667824 -.00022516  00000-0 -14008-2 0  9997","EPHEMERIS_TYPE":"0","GP_ID":"202170079","RCS_SIZE":"LARGE","ECCENTRICITY":"0.00019050","BSTAR":"-0.00140080000000","FILE":"3418861","MEAN_MOTION_DOT":"-0.00022516","PERIAPSIS":"538.414","SEMIMAJOR_AXIS":"6917.867","MEAN_MOTION":"15.08844387","CLASSIFICATION_TYPE":"U","ARG_OF_PERICENTER":"41.8652","REF_FRAME":"TEME","OBJECT_TYPE":"PAYLOAD","LAUNCH_DATE":"2022-01-06","MEAN_ELEMENT_THEORY":"SGP4","ELEMENT_SET_NO":"999","MEAN_ANOMALY":"121.3632","EPOCH":"2022-04-27T22:00:00.999936","OBJECT_ID":"2022-001AV","TIME_SYSTEM":"UTC","PERIOD":"95.437","APOAPSIS":"541.050","CENTER_NAME":"EARTH","DECAY_DATE":null,"SITE":"AFETR","REV_AT_EPOCH":"1841","MEAN_MOTION_DDOT":"0.0000000000000","OBJECT_NAME":"STARLINK-3308","NORAD_CAT_ID":"50846"}];
